[{"OBJECT_NAME":"SL-14 R/B","OBJECT_ID":"1986-006B","EPOCH":"2026-03-18T11:18:32.673600","MEAN_MOTION":14.86827891,"ECCENTRICITY":0.00752065,"INCLINATION":82.5237,"RA_OF_ASC_NODE":251.4698,"ARG_OF_PERICENTER":243.1269,"MEAN_ANOMALY":116.2247,"EPHEMERIS_TYPE":0,"CLASSIFICATION_TYPE":"U","NORAD_CAT_ID":16496,"ELEMENT_SET_NO":999,"REV_AT_EPOCH":15051,"BSTAR":7.4548199e-5,"MEAN_MOTION_DOT":7.25e-6,"MEAN_MOTION_DDOT":0},{"OBJECT_NAME":"COSMOS 1743","OBJECT_ID":"1986-034A","EPOCH":"2026-03-18T08:55:39.952416","MEAN_MOTION":15.59207926,"ECCENTRICITY":0.00021678,"INCLINATION":82.528,"RA_OF_ASC_NODE":64.7117,"ARG_OF_PERICENTER":216.4499,"MEAN_ANOMALY":143.661,"EPHEMERIS_TYPE":0,"CLASSIFICATION_TYPE":"U","NORAD_CAT_ID":16719,"ELEMENT_SET_NO":999,"REV_AT_EPOCH":18160,"BSTAR":0.0004110675,"MEAN_MOTION_DOT":0.00032322,"MEAN_MOTION_DDOT":0},{"OBJECT_NAME":"SL-14 R/B","OBJECT_ID":"1986-046B","EPOCH":"2026-03-18T10:17:24.117504","MEAN_MOTION":14.8559899,"ECCENTRICITY":0.00226297,"INCLINATION":82.4787,"RA_OF_ASC_NODE":71.9216,"ARG_OF_PERICENTER":195.4379,"MEAN_ANOMALY":164.615,"EPHEMERIS_TYPE":0,"CLASSIFICATION_TYPE":"U","NORAD_CAT_ID":16792,"ELEMENT_SET_NO":999,"REV_AT_EPOCH":12770,"BSTAR":4.9643018e-5,"MEAN_MOTION_DOT":4.56e-6,"MEAN_MOTION_DDOT":0},{"OBJECT_NAME":"SL-14 R/B","OBJECT_ID":"1986-055B","EPOCH":"2026-03-18T13:48:59.502816","MEAN_MOTION":14.85650621,"ECCENTRICITY":0.00175713,"INCLINATION":82.5184,"RA_OF_ASC_NODE":118.3209,"ARG_OF_PERICENTER":305.5998,"MEAN_ANOMALY":206.4639,"EPHEMERIS_TYPE":0,"CLASSIFICATION_TYPE":"U","NORAD_CAT_ID":16882,"ELEMENT_SET_NO":999,"REV_AT_EPOCH":12068,"BSTAR":4.5023692e-5,"MEAN_MOTION_DOT":4.15e-6,"MEAN_MOTION_DDOT":0},{"OBJECT_NAME":"AJISAI (EGS)","OBJECT_ID":"1986-061A","EPOCH":"2026-03-18T13:21:14.057280","MEAN_MOTION":12.445157,"ECCENTRICITY":0.00112987,"INCLINATION":50.009,"RA_OF_ASC_NODE":66.0812,"ARG_OF_PERICENTER":309.8797,"MEAN_ANOMALY":151.5388,"EPHEMERIS_TYPE":0,"CLASSIFICATION_TYPE":"U","NORAD_CAT_ID":16908,"ELEMENT_SET_NO":999,"REV_AT_EPOCH":46910,"BSTAR":-3.9081478e-5,"MEAN_MOTION_DOT":-1.03e-6,"MEAN_MOTION_DDOT":0},{"OBJECT_NAME":"SL-14 R/B","OBJECT_ID":"1987-024B","EPOCH":"2026-03-18T11:00:54.452448","MEAN_MOTION":14.86140529,"ECCENTRICITY":0.00170146,"INCLINATION":82.5244,"RA_OF_ASC_NODE":84.5188,"ARG_OF_PERICENTER":228.4986,"MEAN_ANOMALY":131.4771,"EPHEMERIS_TYPE":0,"CLASSIFICATION_TYPE":"U","NORAD_CAT_ID":17567,"ELEMENT_SET_NO":999,"REV_AT_EPOCH":8943,"BSTAR":4.8526442e-5,"MEAN_MOTION_DOT":4.5e-6,"MEAN_MOTION_DDOT":0},{"OBJECT_NAME":"COSMOS 1833","OBJECT_ID":"1987-027A","EPOCH":"2026-03-18T13:37:04.268064","MEAN_MOTION":14.13052047,"ECCENTRICITY":0.00238094,"INCLINATION":70.92,"RA_OF_ASC_NODE":307.3605,"ARG_OF_PERICENTER":201.8075,"MEAN_ANOMALY":158.2035,"EPHEMERIS_TYPE":0,"CLASSIFICATION_TYPE":"U","NORAD_CAT_ID":17589,"ELEMENT_SET_NO":999,"REV_AT_EPOCH":1157,"BSTAR":-9.189983e-5,"MEAN_MOTION_DOT":-2.2e-6,"MEAN_MOTION_DDOT":0},{"OBJECT_NAME":"SL-16 R/B","OBJECT_ID":"1987-027B","EPOCH":"2026-03-18T12:22:05.460672","MEAN_MOTION":14.17166802,"ECCENTRICITY":0.00030995,"INCLINATION":70.9991,"RA_OF_ASC_NODE":257.8951,"ARG_OF_PERICENTER":122.5025,"MEAN_ANOMALY":237.6399,"EPHEMERIS_TYPE":0,"CLASSIFICATION_TYPE":"U","NORAD_CAT_ID":17590,"ELEMENT_SET_NO":999,"REV_AT_EPOCH":1659,"BSTAR":-3.267415e-6,"MEAN_MOTION_DOT":-5.5e-7,"MEAN_MOTION_DDOT":0},{"OBJECT_NAME":"SL-14 R/B","OBJECT_ID":"1987-038B","EPOCH":"2026-03-18T12:37:10.126560","MEAN_MOTION":14.85377024,"ECCENTRICITY":0.00203627,"INCLINATION":82.4986,"RA_OF_ASC_NODE":288.4822,"ARG_OF_PERICENTER":132.4162,"MEAN_ANOMALY":227.8781,"EPHEMERIS_TYPE":0,"CLASSIFICATION_TYPE":"U","NORAD_CAT_ID":17912,"ELEMENT_SET_NO":999,"REV_AT_EPOCH":8054,"BSTAR":4.6011394e-5,"MEAN_MOTION_DOT":4.22e-6,"MEAN_MOTION_DDOT":0},{"OBJECT_NAME":"COSMOS 1844","OBJECT_ID":"1987-041A","EPOCH":"2026-03-18T12:32:18.868704","MEAN_MOTION":14.14551207,"ECCENTRICITY":0.00304747,"INCLINATION":70.9008,"RA_OF_ASC_NODE":15.5452,"ARG_OF_PERICENTER":4.9786,"MEAN_ANOMALY":355.1632,"EPHEMERIS_TYPE":0,"CLASSIFICATION_TYPE":"U","NORAD_CAT_ID":17973,"ELEMENT_SET_NO":999,"REV_AT_EPOCH":483,"BSTAR":2.9565477e-5,"MEAN_MOTION_DOT":9.0e-8,"MEAN_MOTION_DDOT":0},{"OBJECT_NAME":"SL-14 R/B","OBJECT_ID":"1987-055B","EPOCH":"2026-03-18T10:24:39.543264","MEAN_MOTION":14.85638968,"ECCENTRICITY":0.00203486,"INCLINATION":82.5026,"RA_OF_ASC_NODE":340.7924,"ARG_OF_PERICENTER":349.2081,"MEAN_ANOMALY":10.8695,"EPHEMERIS_TYPE":0,"CLASSIFICATION_TYPE":"U","NORAD_CAT_ID":18153,"ELEMENT_SET_NO":999,"REV_AT_EPOCH":7123,"BSTAR":4.9114337e-5,"MEAN_MOTION_DOT":4.51e-6,"MEAN_MOTION_DDOT":0},{"OBJECT_NAME":"COSMOS 1867","OBJECT_ID":"1987-060A","EPOCH":"2026-03-18T12:33:30.382848","MEAN_MOTION":14.3150435,"ECCENTRICITY":0.00146119,"INCLINATION":65.0096,"RA_OF_ASC_NODE":281.9664,"ARG_OF_PERICENTER":279.1411,"MEAN_ANOMALY":80.802,"EPHEMERIS_TYPE":0,"CLASSIFICATION_TYPE":"U","NORAD_CAT_ID":18187,"ELEMENT_SET_NO":999,"REV_AT_EPOCH":2120,"BSTAR":2.0235748e-5,"MEAN_MOTION_DOT":-4.6e-7,"MEAN_MOTION_DDOT":0},{"OBJECT_NAME":"SL-14 R/B","OBJECT_ID":"1988-001B","EPOCH":"2026-03-18T13:32:48.108480","MEAN_MOTION":14.85538195,"ECCENTRICITY":0.0017442,"INCLINATION":82.516,"RA_OF_ASC_NODE":187.0154,"ARG_OF_PERICENTER":204.7063,"MEAN_ANOMALY":155.332,"EPHEMERIS_TYPE":0,"CLASSIFICATION_TYPE":"U","NORAD_CAT_ID":18749,"ELEMENT_SET_NO":999,"REV_AT_EPOCH":4334,"BSTAR":5.5233645e-5,"MEAN_MOTION_DOT":5.02e-6,"MEAN_MOTION_DDOT":0},{"OBJECT_NAME":"COSMOS 1933","OBJECT_ID":"1988-020A","EPOCH":"2026-03-18T10:12:19.933344","MEAN_MOTION":15.18064626,"ECCENTRICITY":0.0004562,"INCLINATION":82.5101,"RA_OF_ASC_NODE":242.2665,"ARG_OF_PERICENTER":153.2832,"MEAN_ANOMALY":206.8637,"EPHEMERIS_TYPE":0,"CLASSIFICATION_TYPE":"U","NORAD_CAT_ID":18958,"ELEMENT_SET_NO":999,"REV_AT_EPOCH":5155,"BSTAR":0.00016753727,"MEAN_MOTION_DOT":3.442e-5,"MEAN_MOTION_DDOT":0},{"OBJECT_NAME":"SL-3 R/B","OBJECT_ID":"1988-032B","EPOCH":"2026-03-18T13:18:02.462688","MEAN_MOTION":15.20008778,"ECCENTRICITY":0.00252334,"INCLINATION":97.5199,"RA_OF_ASC_NODE":60.7744,"ARG_OF_PERICENTER":199.1526,"MEAN_ANOMALY":160.8763,"EPHEMERIS_TYPE":0,"CLASSIFICATION_TYPE":"U","NORAD_CAT_ID":19046,"ELEMENT_SET_NO":999,"REV_AT_EPOCH":5345,"BSTAR":0.00020950689,"MEAN_MOTION_DOT":4.48e-5,"MEAN_MOTION_DDOT":0},{"OBJECT_NAME":"SL-16 R/B","OBJECT_ID":"1988-039B","EPOCH":"2026-03-18T08:46:06.979584","MEAN_MOTION":14.19617726,"ECCENTRICITY":0.00232016,"INCLINATION":71.0147,"RA_OF_ASC_NODE":50.2011,"ARG_OF_PERICENTER":321.7816,"MEAN_ANOMALY":38.1664,"EPHEMERIS_TYPE":0,"CLASSIFICATION_TYPE":"U","NORAD_CAT_ID":19120,"ELEMENT_SET_NO":999,"REV_AT_EPOCH":95961,"BSTAR":2.5387807e-5,"MEAN_MOTION_DOT":6.0e-8,"MEAN_MOTION_DDOT":0},{"OBJECT_NAME":"COSMOS 1953","OBJECT_ID":"1988-050A","EPOCH":"2026-03-18T11:06:34.735392","MEAN_MOTION":15.28668002,"ECCENTRICITY":0.00126595,"INCLINATION":82.51,"RA_OF_ASC_NODE":149.4239,"ARG_OF_PERICENTER":95.0796,"MEAN_ANOMALY":265.1889,"EPHEMERIS_TYPE":0,"CLASSIFICATION_TYPE":"U","NORAD_CAT_ID":19210,"ELEMENT_SET_NO":999,"REV_AT_EPOCH":3912,"BSTAR":0.00020809881,"MEAN_MOTION_DOT":5.846e-5,"MEAN_MOTION_DDOT":0}]
